[{"OBJECT_NAME":"OBJECT AL","OBJECT_ID":"2025-313AL","EPOCH":"2026-03-09T21:47:37.500288","MEAN_MOTION":15.21924199,"ECCENTRICITY":0.00104977,"INCLINATION":97.3994,"RA_OF_ASC_NODE":145.2165,"ARG_OF_PERICENTER":356.408,"MEAN_ANOMALY":3.7079,"EPHEMERIS_TYPE":0,"CLASSIFICATION_TYPE":"U","NORAD_CAT_ID":67282,"ELEMENT_SET_NO":999,"REV_AT_EPOCH":1085,"BSTAR":0.00031499463,"MEAN_MOTION_DOT":7.118e-5,"MEAN_MOTION_DDOT":0},{"OBJECT_NAME":"PEGASUS DEB","OBJECT_ID":"1994-029LK","EPOCH":"2026-03-09T22:18:47.115072","MEAN_MOTION":14.54268919,"ECCENTRICITY":0.03111088,"INCLINATION":81.4299,"RA_OF_ASC_NODE":55.7262,"ARG_OF_PERICENTER":293.7836,"MEAN_ANOMALY":63.1023,"EPHEMERIS_TYPE":0,"CLASSIFICATION_TYPE":"U","NORAD_CAT_ID":24236,"ELEMENT_SET_NO":999,"REV_AT_EPOCH":52042,"BSTAR":0.0019719225,"MEAN_MOTION_DOT":0.00016098,"MEAN_MOTION_DDOT":0}]
